ELFIN-A                 
1 43617U 18070E   21179.35822534  .00007919  00000-0  16547-3 0  9991
2 43617  93.0342 311.5440 0011426 324.2560  35.7932 15.45441201156477
CUBEBEL-1 (BSUSAT-1)    
1 43666U 18083E   21179.77147285  .00001573  00000-0  77336-4 0  9992
2 43666  97.4534 207.9963 0015995 125.8096 322.8330 15.19393051147735
CICERO 10               
1 43690U 18088A   21179.29882764  .00001435  00000-0  62285-4 0  9993
2 43690  85.0377 190.5104 0015117  19.8307 340.3519 15.21277354145874
IRVINE01                
1 43693U 18088D   21179.76983555  .00004717  00000-0  18296-3 0  9996
2 43693  85.0340 187.4385 0015721 352.7398   7.3615 15.25715121146166
PROXIMA I               
1 43694U 18088E   21179.45368161  .00001572  00000-0  64901-4 0  9994
2 43694  85.0318 187.9930 0017938 347.3294  12.7494 15.23004651146049
PROXIMA II              
1 43696U 18088G   21179.32053253  .00001548  00000-0  63866-4 0  9997
2 43696  85.0319 188.0900 0017998 347.7749  12.3054 15.23001970146023
FACSAT-1                
1 43721U 18096C   21179.72564233  .00002605  00000-0  95094-4 0  9997
2 43721  97.3852 256.7783 0015479 227.4273 260.2220 15.28943032143845
CENTAURI-2              
1 43722U 18096D   21179.33741899  .00003438  00000-0  12038-3 0  9991
2 43722  97.3872 257.2128 0015258 226.8432 133.1534 15.30081089143824
INNOSAT-2               
1 43738U 18096V   21179.76357784  .00004894  00000-0  15206-3 0  9998
2 43738  97.3927 261.4807 0020175 226.9494 251.0641 15.33635314144139
SIRION PATHFINDER-2     
1 43759U 18099B   21179.36570240  .00000015  00000-0  64571-5 0  9996
2 43759  97.6640 249.7012 0014533  13.3552 346.8051 14.95533996140110
CORVUS BC4              
1 43767U 18099K   21179.38142322  .00000054  00000-0  10076-4 0  9996
2 43767  97.6610 248.6960 0012077  19.1606 341.0067 14.94955276140067
MOVE-II                 
1 43780U 18099Y   21179.78253070  .00000429  00000-0  43326-4 0  9998
2 43780  97.6662 250.2665 0013776  22.7397 337.4432 14.95953652140167
SPACEBEE-7              
1 43816U 18099BL  21179.19066971  .00000508  00000-0  50194-4 0  9994
2 43816  97.6676 250.2882 0013270   8.8732 351.2722 14.96149754139660
SPACEBEE-5              
1 43817U 18099BM  21179.38801113  .00001211  00000-0  10902-3 0  9995
2 43817  97.6767 251.7767 0012754   6.4721 353.6663 14.97397420139743
SPACEBEE-6              
1 43818U 18099BN  21179.15230937  .00001354  00000-0  12394-3 0  9996
2 43818  97.6710 250.6462 0013185  10.1634 349.9851 14.96533422139825
SHIELDS 1               
1 43850U 18104B   21179.30481821  .00000859  00000-0  35796-4 0  9997
2 43850  85.0297 286.7476 0016651 123.9213 236.3615 15.21909538140625
STF-1                   
1 43852U 18104D   21179.26891896  .00001934  00000-0  81531-4 0  9994
2 43852  85.0334 287.4380 0015743 136.6668 223.5815 15.22496591140606
ZACUBE-2                
1 43907U 18111AH  21179.80778497  .00000827  00000-0  35548-4 0  9991
2 43907  97.2320  73.5698 0019414 252.2050 193.3910 15.25227921139365
LUME 1                  
1 43908U 18111AJ  21179.27785355  .00001600  00000-0  64189-4 0  9997
2 43908  97.2325  73.6429 0018662 251.8958 108.0248 15.26282392139327
AOBA VELOX-IV           
1 43940U 19003J   21179.37820609  .00003810  00000-0  14393-3 0  9993
2 43940  97.1761 223.0555 0021318 334.8185  25.2013 15.27371895135978
UNITE                   
1 44031U 98067PX  21179.33392861  .00041815  00000-0  22498-3 0  9994
2 44031  51.6368 208.8409 0004283  20.1538 339.9632 15.79765857137398
RAAVANA-1               
1 44329U 98067QE  21179.36999329  .00052972  00000-0  29597-3 0  9992
2 44329  51.6333 228.6718 0006297 348.3767  11.7088 15.78811693115888
UGUISU                  
1 44330U 98067QF  21179.37211681  .00049887  00000-0  28708-3 0  9997
2 44330  51.6285 229.3342 0006388 345.6232  14.4586 15.78178834115858
NEPALISAT-1             
1 44331U 98067QG  21179.17666304  .00053592  00000-0  30110-3 0  9990
2 44331  51.6306 229.5320 0006338 347.1753  12.9086 15.78683116115842
SPOOQY-1                
1 44332U 98067QH  21179.70943779  .00047024  00000-0  27741-3 0  9993
2 44332  51.6323 227.8857 0005831 354.6945   5.3992 15.77652259115879
SPACEBEE-9              
1 44370U 19037F   21179.65637547  .00029466  00000-0  38905-3 0  9996
2 44370  44.9986 154.6320 0004261 295.2712  64.7741 15.57884602112933
MOVE-IIB                
1 44398U 19038N   21179.61421983  .00001878  00000-0  10745-3 0  9997
2 44398  97.5840 143.5682 0022519 272.3105  87.5551 15.13710522109458
SONATE                  
1 44400U 19038Q   21179.62721487  .00000869  00000-0  53361-4 0  9995
2 44400  97.5910 143.4483 0023270 272.0822  87.7768 15.12573281109423
LUCKY-7                 
1 44406U 19038W   21179.16502941  .00000950  00000-0  57390-4 0  9999
2 44406  97.5902 143.2427 0022511 272.5003  87.3650 15.12980082109369
BEESAT 9                
1 44412U 19038AC  21179.64479863  .00001351  00000-0  79302-4 0  9998
2 44412  97.5886 143.7485 0020421 276.5197  83.3709 15.13320841109141
JAISAT-1                
1 44419U 19038F   21179.34658118  .00001312  00000-0  76114-4 0  9999
2 44419  97.5889 144.0076 0019311 275.7015  84.2014 15.13804559109442
KRAKSAT                 
1 44427U 98067QM  21179.66664557  .00022568  00000-0  20456-3 0  9999
2 44427  51.6391 243.4261 0003300 311.4774 132.1800 15.67942491113236
VCC A                   
1 44428U 98067QN  21179.70543062  .00043229  00000-0  27302-3 0  9996
2 44428  51.6325 231.7597 0004470 339.2211  20.8607 15.76154117113394
ENTRYSAT                
1 44429U 98067QP  21179.36789788  .00130136  00000-0  43560-3 0  9994
2 44429  51.6243 221.7251 0007267 359.7716   0.3284 15.89222265113493
VCC B                   
1 44431U 98067QR  21179.33604648  .00046747  00000-0  28576-3 0  9999
2 44431  51.6309 232.9356 0004208 339.0052  21.0774 15.76862089113286
DUCHIFAT-3              
1 44854U 19089C   21179.71374283  .00000457  00000-0  42865-4 0  9992
2 44854  36.9677  34.0438 0009203 239.5024 120.4807 14.99517224 84790
EYESAT-NANO             
1 44877U 19092E   21179.23000673  .00001806  00000-0  91796-4 0  9993
2 44877  97.4606   2.7128 0013996 146.1439 214.0691 15.18062721 84570
ORBITAL FACTORY 2 (OF-2)
1 45113U 19071C   21178.88161010  .00003954  00000-0  12232-3 0  9990
2 45113  51.6429 346.9479 0011468 333.4924  26.5471 15.35849247 78775
M2 PATHFINDER           
1 45727U 20037E   21179.42118211 -.00000314  00000-0 -25850-4 0  9991
2 45727  97.7135 357.0005 0013578 126.6890 233.5612 14.91392238 54053
NETSAT-4                
1 46504U 20068U   21179.55835259  .00000647  00000-0  53725-4 0  9990
2 46504  97.6936 116.3176 0013750  90.0859 270.1967 15.02140968 40904
NETSAT-3                
1 46505U 20068V   21179.56548295  .00001057  00000-0  85027-4 0  9999
2 46505  97.6914 116.2894 0011209  95.8342 264.4176 15.02098787 40914
NETSAT-1                
1 46506U 20068W   21179.57227165  .00001306  00000-0  10410-3 0  9991
2 46506  97.6876 116.2658 0008194 103.1107 257.1040 15.02053927 40917
NETSAT-2                
1 46507U 20068X   21179.57602033  .00001244  00000-0  99489-4 0  9998
2 46507  97.6872 116.2703 0006904 104.0369 256.1640 15.02020122 40862
SPOC                    
1 46921U 98067RR  21179.32311196  .00008514  00000-0  13338-3 0  9997
2 46921  51.6419 281.8215 0001890 110.9334 249.1859 15.54610051 36551
BOBCAT-1                
1 46922U 98067RS  21179.64653532  .00012635  00000-0  18208-3 0  9996
2 46922  51.6424 278.7523 0001218 114.1533 245.9586 15.56405415 36577
NEUTRON-1               
1 46923U 98067RT  21179.14668413  .00009069  00000-0  14227-3 0  9990
2 46923  51.6419 282.8907 0001745 126.2132 233.9021 15.54479248 36550
1998-067RU              
1 46924U 98067RU  21179.26920281  .00026093  00000-0  31652-3 0  9995
2 46924  51.6395 277.6990 0000837 231.3845 128.7073 15.60432803 36605
DESCENT                 
1 46927U 98067RX  21179.15184604  .00009268  00000-0  14531-3 0  9999
2 46927  51.6418 282.9221 0001810 151.7055 208.4034 15.54462781 36468
SAI-1 NANOCONNECT-2     
1 47701U 21015C   21179.19350035 -.00000071  00000-0  00000-0 0  9993
2 47701  97.4559 253.6735 0010907 255.9663 104.0475 15.22703875 18251
WARP-01                 
1 47924U 98067SA  21179.70190189  .00011887  00000-0  20079-3 0  9997
2 47924  51.6421 284.3268 0004444 147.6249 212.5014 15.52064161 16541
RSP-01                  
1 47925U 98067SB  21179.57431007  .00009350  00000-0  16102-3 0  9994
2 47925  51.6427 284.9817 0002133  72.0794 288.0428 15.51815450 16500
TAUSAT-1                
1 47926U 98067SC  21179.15677842  .00010955  00000-0  18298-3 0  9999
2 47926  51.6421 286.6924 0003113  71.9867 288.1462 15.52476831 16439
TSURU                   
1 47927U 98067SD  21179.57996943  .00008438  00000-0  14702-3 0  9991
2 47927  51.6429 285.0192 0002253  70.9431 289.1803 15.51633241 16505
STARS-EC                
1 47928U 98067SE  21179.77099055  .00012909  00000-0  21820-3 0  9999
2 47928  51.6422 284.0389 0005068 152.3519 207.7741 15.51954286 16518
MAYA-2                  
1 47929U 98067SF  21179.77099964  .00013488  00000-0  22986-3 0  9996
2 47929  51.6424 284.0452 0002365  68.1046 292.0195 15.51685270 16499
HIROGARI (OPUSAT-II)    
1 47930U 98067SG  21179.36670271  .00013126  00000-0  21876-3 0  9995
2 47930  51.6426 285.8464 0002102  56.4977 303.6214 15.52339334 16474
GUARANISAT-1            
1 47931U 98067SH  21179.38367158  .00008384  00000-0  14592-3 0  9992
2 47931  51.6429 285.9589 0002371  67.2490 292.8750 15.51673809 16476
SMOG-1                  
1 47964U 21022AJ  21179.25488955  .00001024  00000-0  72167-4 0  9997
2 47964  97.5576  81.3814 0018107 268.8395  91.0758 15.07096691 13507
MMSATS-1                
1 47976U 98067SJ  21179.59564440  .00003771  00000-0  74168-4 0  9998
2 47976  51.6480 285.8514 0002916 123.8336 236.2941 15.49938379 15276
